start=new Date('2022-07-06T00:00:00.000Z').valueOf();
sats=[{"INCLINATION":"53.2180","ELEMENT_SET_NO":"999","REV_AT_EPOCH":"2052","TLE_LINE2":"2 51892  53.2180 267.0553 0001825  40.8196 231.9107 15.08848952 20520","DECAY_DATE":null,"PERIOD":"95.437","GP_ID":"207481810","TLE_LINE1":"1 51892U 22022AS  22186.91667824 -.00029673  00000-0 -18535-2 0  9998","TIME_SYSTEM":"UTC","SEMIMAJOR_AXIS":"6917.853","MEAN_MOTION_DOT":"-0.00029673","BSTAR":"-0.00185350000000","EPOCH":"2022-07-05T22:00:00.999936","CENTER_NAME":"EARTH","RA_OF_ASC_NODE":"267.0553","MEAN_ELEMENT_THEORY":"SGP4","FILE":"3508233","NORAD_CAT_ID":"51892","OBJECT_TYPE":"PAYLOAD","RCS_SIZE":"LARGE","MEAN_ANOMALY":"231.9107","ECCENTRICITY":"0.00018250","OBJECT_ID":"2022-022AS","PERIAPSIS":"538.456","EPHEMERIS_TYPE":"0","ARG_OF_PERICENTER":"40.8196","REF_FRAME":"TEME","MEAN_MOTION":"15.08848952","MEAN_MOTION_DDOT":"0.0000000000000","CLASSIFICATION_TYPE":"U","SITE":"AFETR","APOAPSIS":"540.981","OBJECT_NAME":"STARLINK-3587","COUNTRY_CODE":"US","LAUNCH_DATE":"2022-03-03"},{"MEAN_MOTION":"15.08846227","MEAN_MOTION_DDOT":"0.0000000000000","CLASSIFICATION_TYPE":"U","ARG_OF_PERICENTER":"54.2244","REF_FRAME":"TEME","LAUNCH_DATE":"2022-03-03","SITE":"AFETR","OBJECT_NAME":"STARLINK-3579","APOAPSIS":"540.757","COUNTRY_CODE":"US","MEAN_ANOMALY":"298.5888","OBJECT_ID":"2022-022AT","ECCENTRICITY":"0.00014900","OBJECT_TYPE":"PAYLOAD","RCS_SIZE":"LARGE","PERIAPSIS":"538.696","EPHEMERIS_TYPE":"0","SEMIMAJOR_AXIS":"6917.861","MEAN_MOTION_DOT":"-0.00047225","BSTAR":"-0.00296820000000","EPOCH":"2022-07-05T22:00:00.999936","FILE":"3508233","NORAD_CAT_ID":"51893","CENTER_NAME":"EARTH","RA_OF_ASC_NODE":"267.0460","MEAN_ELEMENT_THEORY":"SGP4","TLE_LINE2":"2 51893  53.2159 267.0460 0001490  54.2244 298.5888 15.08846227 20590","DECAY_DATE":null,"PERIOD":"95.437","INCLINATION":"53.2159","ELEMENT_SET_NO":"999","REV_AT_EPOCH":"2059","TLE_LINE1":"1 51893U 22022AT  22186.91667824 -.00047225  00000-0 -29682-2 0  9997","TIME_SYSTEM":"UTC","GP_ID":"207481718"},{"TLE_LINE1":"1 51894U 22022AU  22186.58334491  .00018027  00000-0  11480-2 0  9995","TIME_SYSTEM":"UTC","GP_ID":"207479018","PERIOD":"95.438","TLE_LINE2":"2 51894  53.2167 268.5455 0001980  50.4825 270.7003 15.08834159  1307","DECAY_DATE":null,"REV_AT_EPOCH":"130","ELEMENT_SET_NO":"999","INCLINATION":"53.2167","NORAD_CAT_ID":"51894","FILE":"3508171","RA_OF_ASC_NODE":"268.5455","CENTER_NAME":"EARTH","MEAN_ELEMENT_THEORY":"SGP4","EPOCH":"2022-07-05T14:00:01.000224","BSTAR":"0.00114800000000","MEAN_MOTION_DOT":"0.00018027","SEMIMAJOR_AXIS":"6917.898","EPHEMERIS_TYPE":"0","PERIAPSIS":"538.393","ECCENTRICITY":"0.00019800","OBJECT_ID":"2022-022AU","MEAN_ANOMALY":"270.7003","RCS_SIZE":"LARGE","OBJECT_TYPE":"PAYLOAD","LAUNCH_DATE":"2022-03-03","COUNTRY_CODE":"US","APOAPSIS":"541.133","OBJECT_NAME":"STARLINK-3595","SITE":"AFETR","CLASSIFICATION_TYPE":"U","MEAN_MOTION_DDOT":"0.0000000000000","MEAN_MOTION":"15.08834159","REF_FRAME":"TEME","ARG_OF_PERICENTER":"50.4825"},{"OBJECT_ID":"2022-022AV","ECCENTRICITY":"0.00019370","MEAN_ANOMALY":"313.7405","RCS_SIZE":"LARGE","OBJECT_TYPE":"PAYLOAD","EPHEMERIS_TYPE":"0","PERIAPSIS":"538.465","CLASSIFICATION_TYPE":"U","MEAN_MOTION_DDOT":"0.0000000000000","MEAN_MOTION":"15.08820375","ARG_OF_PERICENTER":"47.3946","REF_FRAME":"TEME","LAUNCH_DATE":"2022-03-03","COUNTRY_CODE":"US","APOAPSIS":"541.145","OBJECT_NAME":"STARLINK-3594","SITE":"AFETR","PERIOD":"95.439","TLE_LINE2":"2 51895  53.2157 268.5435 0001937  47.3946 313.7405 15.08820375  1316","DECAY_DATE":null,"REV_AT_EPOCH":"131","ELEMENT_SET_NO":"999","INCLINATION":"53.2157","TLE_LINE1":"1 51895U 22022AV  22186.58334491  .00017440  00000-0  11117-2 0  9991","TIME_SYSTEM":"UTC","GP_ID":"207478272","EPOCH":"2022-07-05T14:00:01.000224","BSTAR":"0.00111170000000","MEAN_MOTION_DOT":"0.00017440","SEMIMAJOR_AXIS":"6917.940","NORAD_CAT_ID":"51895","FILE":"3508171","RA_OF_ASC_NODE":"268.5435","CENTER_NAME":"EARTH","MEAN_ELEMENT_THEORY":"SGP4"},{"OBJECT_TYPE":"PAYLOAD","RCS_SIZE":"LARGE","MEAN_ANOMALY":"319.2796","ECCENTRICITY":"0.00017630","OBJECT_ID":"2022-022AW","PERIAPSIS":"538.483","EPHEMERIS_TYPE":"0","ARG_OF_PERICENTER":"48.2685","REF_FRAME":"TEME","MEAN_MOTION":"15.08853839","MEAN_MOTION_DDOT":"0.0000000000000","CLASSIFICATION_TYPE":"U","SITE":"AFETR","APOAPSIS":"540.923","OBJECT_NAME":"STARLINK-3593","COUNTRY_CODE":"US","LAUNCH_DATE":"2022-03-03","INCLINATION":"53.2151","ELEMENT_SET_NO":"999","REV_AT_EPOCH":"2058","DECAY_DATE":null,"TLE_LINE2":"2 51896  53.2151 267.0456 0001763  48.2685 319.2796 15.08853839 20580","PERIOD":"95.437","GP_ID":"207481826","TIME_SYSTEM":"UTC","TLE_LINE1":"1 51896U 22022AW  22186.91667824 -.00028902  00000-0 -18044-2 0  9991","SEMIMAJOR_AXIS":"6917.838","MEAN_MOTION_DOT":"-0.00028902","BSTAR":"-0.00180440000000","EPOCH":"2022-07-05T22:00:00.999936","MEAN_ELEMENT_THEORY":"SGP4","RA_OF_ASC_NODE":"267.0456","CENTER_NAME":"EARTH","FILE":"3508234","NORAD_CAT_ID":"51896"},{"COUNTRY_CODE":"US","SITE":"AFETR","OBJECT_NAME":"STARLINK-3598","APOAPSIS":"540.896","LAUNCH_DATE":"2022-03-03","ARG_OF_PERICENTER":"62.2672","REF_FRAME":"TEME","MEAN_MOTION_DDOT":"0.0000000000000","CLASSIFICATION_TYPE":"U","MEAN_MOTION":"15.08829865","PERIAPSIS":"538.657","EPHEMERIS_TYPE":"0","RCS_SIZE":"LARGE","OBJECT_TYPE":"PAYLOAD","ECCENTRICITY":"0.00016180","OBJECT_ID":"2022-022AX","MEAN_ANOMALY":"318.8928","RA_OF_ASC_NODE":"268.5442","CENTER_NAME":"EARTH","MEAN_ELEMENT_THEORY":"SGP4","NORAD_CAT_ID":"51897","FILE":"3508171","MEAN_MOTION_DOT":"0.00017319","BSTAR":"0.00110390000000","EPOCH":"2022-07-05T14:00:01.000224","SEMIMAJOR_AXIS":"6917.911","GP_ID":"207478773","TLE_LINE1":"1 51897U 22022AX  22186.58334491  .00017319  00000-0  11039-2 0  9991","TIME_SYSTEM":"UTC","ELEMENT_SET_NO":"999","REV_AT_EPOCH":"130","INCLINATION":"53.2164","TLE_LINE2":"2 51897  53.2164 268.5442 0001618  62.2672 318.8928 15.08829865  1300","DECAY_DATE":null,"PERIOD":"95.438"},{"PERIOD":"95.438","DECAY_DATE":null,"TLE_LINE2":"2 51898  53.2161 268.5442 0001537  65.7976 335.3440 15.08840840  1302","INCLINATION":"53.2161","REV_AT_EPOCH":"130","ELEMENT_SET_NO":"999","TLE_LINE1":"1 51898U 22022AY  22186.58334491  .00016938  00000-0  10797-2 0  9998","TIME_SYSTEM":"UTC","GP_ID":"207479519","SEMIMAJOR_AXIS":"6917.878","EPOCH":"2022-07-05T14:00:01.000224","BSTAR":"0.00107970000000","MEAN_MOTION_DOT":"0.00016938","FILE":"3508171","NORAD_CAT_ID":"51898","CENTER_NAME":"EARTH","RA_OF_ASC_NODE":"268.5442","MEAN_ELEMENT_THEORY":"SGP4","MEAN_ANOMALY":"335.3440","ECCENTRICITY":"0.00015370","OBJECT_ID":"2022-022AY","OBJECT_TYPE":"PAYLOAD","RCS_SIZE":"LARGE","EPHEMERIS_TYPE":"0","PERIAPSIS":"538.680","MEAN_MOTION":"15.08840840","CLASSIFICATION_TYPE":"U","MEAN_MOTION_DDOT":"0.0000000000000","REF_FRAME":"TEME","ARG_OF_PERICENTER":"65.7976","LAUNCH_DATE":"2022-03-03","APOAPSIS":"540.806","OBJECT_NAME":"STARLINK-3597","SITE":"AFETR","COUNTRY_CODE":"US"},{"SITE":"AFETR","OBJECT_NAME":"STARLINK-3700","APOAPSIS":"541.116","COUNTRY_CODE":"US","LAUNCH_DATE":"2022-03-09","REF_FRAME":"TEME","ARG_OF_PERICENTER":"53.1629","MEAN_MOTION":"15.08845550","MEAN_MOTION_DDOT":"0.0000000000000","CLASSIFICATION_TYPE":"U","PERIAPSIS":"538.341","EPHEMERIS_TYPE":"0","OBJECT_TYPE":"PAYLOAD","RCS_SIZE":"LARGE","MEAN_ANOMALY":"222.9912","OBJECT_ID":"2022-025A","ECCENTRICITY":"0.00020060","CENTER_NAME":"EARTH","RA_OF_ASC_NODE":"298.5641","MEAN_ELEMENT_THEORY":"SGP4","FILE":"3508171","NORAD_CAT_ID":"51956","SEMIMAJOR_AXIS":"6917.863","MEAN_MOTION_DOT":"-0.00006535","BSTAR":"-0.00039280000000","EPOCH":"2022-07-05T14:00:01.000224","GP_ID":"207478525","TLE_LINE1":"1 51956U 22025A   22186.58334491 -.00006535  00000-0 -39280-3 0  9999","TIME_SYSTEM":"UTC","INCLINATION":"53.2166","ELEMENT_SET_NO":"999","REV_AT_EPOCH":"130","DECAY_DATE":null,"TLE_LINE2":"2 51956  53.2166 298.5641 0002006  53.1629 222.9912 15.08845550  1302","PERIOD":"95.437"},{"LAUNCH_DATE":"2022-03-09","APOAPSIS":"540.849","OBJECT_NAME":"STARLINK-3694","SITE":"AFETR","COUNTRY_CODE":"US","MEAN_MOTION":"15.08859715","CLASSIFICATION_TYPE":"U","MEAN_MOTION_DDOT":"0.0000000000000","REF_FRAME":"TEME","ARG_OF_PERICENTER":"51.3368","EPHEMERIS_TYPE":"0","PERIAPSIS":"538.521","MEAN_ANOMALY":"324.7982","OBJECT_ID":"2022-025B","ECCENTRICITY":"0.00016830","OBJECT_TYPE":"PAYLOAD","RCS_SIZE":"LARGE","FILE":"3508171","NORAD_CAT_ID":"51957","CENTER_NAME":"EARTH","RA_OF_ASC_NODE":"298.5582","MEAN_ELEMENT_THEORY":"SGP4","SEMIMAJOR_AXIS":"6917.820","BSTAR":"-0.00110050000000","EPOCH":"2022-07-05T14:00:01.000224","MEAN_MOTION_DOT":"-0.00017769","TLE_LINE1":"1 51957U 22025B   22186.58334491 -.00017769  00000-0 -11005-2 0  9995","TIME_SYSTEM":"UTC","GP_ID":"207479277","PERIOD":"95.436","TLE_LINE2":"2 51957  53.2143 298.5582 0001683  51.3368 324.7982 15.08859715  1308","DECAY_DATE":null,"INCLINATION":"53.2143","REV_AT_EPOCH":"130","ELEMENT_SET_NO":"999"},{"TLE_LINE1":"1 51958U 22025C   22186.58334491 -.00008548  00000-0 -51942-3 0  9996","TIME_SYSTEM":"UTC","GP_ID":"207479022","PERIOD":"95.437","TLE_LINE2":"2 51958  53.2176 298.5679 0002027  43.8892 252.2679 15.08849042  1303","DECAY_DATE":null,"REV_AT_EPOCH":"130","ELEMENT_SET_NO":"999","INCLINATION":"53.2176","NORAD_CAT_ID":"51958","FILE":"3508171","RA_OF_ASC_NODE":"298.5679","CENTER_NAME":"EARTH","MEAN_ELEMENT_THEORY":"SGP4","EPOCH":"2022-07-05T14:00:01.000224","BSTAR":"-0.00051942000000","MEAN_MOTION_DOT":"-0.00008548","SEMIMAJOR_AXIS":"6917.853","EPHEMERIS_TYPE":"0","PERIAPSIS":"538.316","OBJECT_ID":"2022-025C","ECCENTRICITY":"0.00020270","MEAN_ANOMALY":"252.2679","RCS_SIZE":"LARGE","OBJECT_TYPE":"PAYLOAD","LAUNCH_DATE":"2022-03-09","COUNTRY_CODE":"US","OBJECT_NAME":"STARLINK-3692","APOAPSIS":"541.120","SITE":"AFETR","CLASSIFICATION_TYPE":"U","MEAN_MOTION_DDOT":"0.0000000000000","MEAN_MOTION":"15.08849042","ARG_OF_PERICENTER":"43.8892","REF_FRAME":"TEME"}];
